{"type": "FeatureCollection", "features": [ {"type": "Feature", "properties": {"norad_id": 66469, "name": "STARLINK-35451", "group": "last-30-days", "lat": -17.341013441697957, "lon": 74.87905312659105, "alt_km": 416.32874589728726, "timestamp": "2025-12-08T17:43:03.631543+00:00", "meta": {"OBJECT_NAME": "STARLINK-35451", "OBJECT_ID": "2025-262P", "EPOCH": "2025-12-08T06:00:02.999808", "MEAN_MOTION": 15.50628034, "ECCENTRICITY": 0.00013922, "INCLINATION": 43.0006, "RA_OF_ASC_NODE": 97.3128, "ARG_OF_PERICENTER": 272.4193, "MEAN_ANOMALY": 213.2518, "EPHEMERIS_TYPE": 0, "CLASSIFICATION_TYPE": "U", "NORAD_CAT_ID": 66469, "ELEMENT_SET_NO": 999, "REV_AT_EPOCH": 491, "BSTAR": -0.0013128693, "MEAN_MOTION_DOT": -0.00076744, "MEAN_MOTION_DDOT": 0}, "tle": {"line1": "1 66469U 25262P   25342.25003472 -.00076744  00000+0 -13129-2 0  9994", "line2": "2 66469  43.0006  97.3128 0001392 272.4193 213.2518 15.50628034  4919"}}, "geometry": {"type": "Point", "coordinates": [74.87905312659105, -17.341013441697957]}}, {"type": "Feature", "properties": {"norad_id": 66470, "name": "STARLINK-35655", "group": "last-30-days", "lat": -19.767620867467446, "lon": 71.78243810702863, "alt_km": 416.5361590786897, "timestamp": "2025-12-08T17:43:03.631556+00:00", "meta": {"OBJECT_NAME": "STARLINK-35655", "OBJECT_ID": "2025-262Q", "EPOCH": "2025-12-08T06:00:02.999808", "MEAN_MOTION": 15.5056913, "ECCENTRICITY": 0.00017125, "INCLINATION": 43.0006, "RA_OF_ASC_NODE": 97.3233, "ARG_OF_PERICENTER": 265.0254, "MEAN_ANOMALY": 216.887, "EPHEMERIS_TYPE": 0, "CLASSIFICATION_TYPE": "U", "NORAD_CAT_ID": 66470, "ELEMENT_SET_NO": 999, "REV_AT_EPOCH": 491, "BSTAR": -0.00051718509, "MEAN_MOTION_DOT": -0.00030554, "MEAN_MOTION_DDOT": 0}, "tle": {"line1": "1 66470U 25262Q   25342.25003472 -.00030554  00000+0 -51719-3 0  9993", "line2": "2 66470  43.0006  97.3233 0001712 265.0254 216.8870 15.50569130  4911"}}, "geometry": {"type": "Point", "coordinates": [71.78243810702863, -19.767620867467446]}}, {"type": "Feature", "properties": {"norad_id": 66471, "name": "STARLINK-35569", "group": "last-30-days", "lat": -18.55912635979567, "lon": 73.3444600261071, "alt_km": 416.6907811751389, "timestamp": "2025-12-08T17:43:03.631566+00:00", "meta": {"OBJECT_NAME": "STARLINK-35569", "OBJECT_ID": "2025-262R", "EPOCH": "2025-12-08T06:00:02.999808", "MEAN_MOTION": 15.50609637, "ECCENTRICITY": 0.00015613, "INCLINATION": 43.0006, "RA_OF_ASC_NODE": 97.3187, "ARG_OF_PERICENTER": 258.1673, "MEAN_ANOMALY": 225.6405, "EPHEMERIS_TYPE": 0, "CLASSIFICATION_TYPE": "U", "NORAD_CAT_ID": 66471, "ELEMENT_SET_NO": 999, "REV_AT_EPOCH": 491, "BSTAR": -0.00160223, "MEAN_MOTION_DOT": -0.00093327, "MEAN_MOTION_DDOT": 0}, "tle": {"line1": "1 66471U 25262R   25342.25003472 -.00093327  00000+0 -16022-2 0  9998", "line2": "2 66471  43.0006  97.3187 0001561 258.1673 225.6405 15.50609637  4919"}}, "geometry": {"type": "Point", "coordinates": [73.3444600261071, -18.55912635979567]}}, {"type": "Feature", "properties": {"norad_id": 66472, "name": "STARLINK-35567", "group": "last-30-days", "lat": -16.09515709229438, "lon": 76.41459936878647, "alt_km": 416.3569949857938, "timestamp": "2025-12-08T17:43:03.631577+00:00", "meta": {"OBJECT_NAME": "STARLINK-35567", "OBJECT_ID": "2025-262S", "EPOCH": "2025-12-08T06:00:02.999808", "MEAN_MOTION": 15.50564124, "ECCENTRICITY": 0.00017061, "INCLINATION": 43.0006, "RA_OF_ASC_NODE": 97.3083, "ARG_OF_PERICENTER": 261.5111, "MEAN_ANOMALY": 226.1492, "EPHEMERIS_TYPE": 0, "CLASSIFICATION_TYPE": "U", "NORAD_CAT_ID": 66472, "ELEMENT_SET_NO": 999, "REV_AT_EPOCH": 491, "BSTAR": -0.00031621732, "MEAN_MOTION_DOT": -0.00018838, "MEAN_MOTION_DDOT": 0}, "tle": {"line1": "1 66472U 25262S   25342.25003472 -.00018838  00000+0 -31622-3 0  9997", "line2": "2 66472  43.0006  97.3083 0001706 261.5111 226.1492 15.50564124  4914"}}, "geometry": {"type": "Point", "coordinates": [76.41459936878647, -16.09515709229438]}}, {"type": "Feature", "properties": {"norad_id": 66473, "name": "STARLINK-35568", "group": "last-30-days", "lat": -14.847595141547064, "lon": 77.91939586212699, "alt_km": 416.2235708853341, "timestamp": "2025-12-08T17:43:03.631587+00:00", "meta": {"OBJECT_NAME": "STARLINK-35568", "OBJECT_ID": "2025-262T", "EPOCH": "2025-12-08T06:00:02.999808", "MEAN_MOTION": 15.50573801, "ECCENTRICITY": 0.00016716, "INCLINATION": 43.0006, "RA_OF_ASC_NODE": 97.3035, "ARG_OF_PERICENTER": 264.9925, "MEAN_ANOMALY": 224.58, "EPHEMERIS_TYPE": 0, "CLASSIFICATION_TYPE": "U", "NORAD_CAT_ID": 66473, "ELEMENT_SET_NO": 999, "REV_AT_EPOCH": 491, "BSTAR": -0.0005392513, "MEAN_MOTION_DOT": -0.00031843, "MEAN_MOTION_DDOT": 0}, "tle": {"line1": "1 66473U 25262T   25342.25003472 -.00031843  00000+0 -53925-3 0  9999", "line2": "2 66473  43.0006  97.3035 0001671 264.9925 224.5800 15.50573801  4910"}}, "geometry": {"type": "Point", "coordinates": [77.91939586212699, -14.847595141547064]}}, {"type": "Feature", "properties": {"norad_id": 66474, "name": "STARLINK-35620", "group": "last-30-days", "lat": -13.584479837197948, "lon": 79.41341270486102, "alt_km": 416.1022990915535, "timestamp": "2025-12-08T17:43:03.631597+00:00", "meta": {"OBJECT_NAME": "STARLINK-35620", "OBJECT_ID": "2025-262U", "EPOCH": "2025-12-08T06:00:02.999808", "MEAN_MOTION": 15.50535698, "ECCENTRICITY": 0.00016247, "INCLINATION": 43.0004, "RA_OF_ASC_NODE": 97.2986, "ARG_OF_PERICENTER": 259.7345, "MEAN_ANOMALY": 231.7563, "EPHEMERIS_TYPE": 0, "CLASSIFICATION_TYPE": "U", "NORAD_CAT_ID": 66474, "ELEMENT_SET_NO": 999, "REV_AT_EPOCH": 491, "BSTAR": 0.00095110777, "MEAN_MOTION_DOT": 0.00055768, "MEAN_MOTION_DDOT": 0}, "tle": {"line1": "1 66474U 25262U   25342.25003472  .00055768  00000+0  95111-3 0  9993", "line2": "2 66474  43.0004  97.2986 0001624 259.7345 231.7563 15.50535698  4917"}}, "geometry": {"type": "Point", "coordinates": [79.41341270486102, -13.584479837197948]}}, {"type": "Feature", "properties": {"norad_id": 66475, "name": "STARLINK-35538", "group": "last-30-days", "lat": -12.32443789808625, "lon": 80.87880925466513, "alt_km": 415.98195467274854, "timestamp": "2025-12-08T17:43:03.631608+00:00", "meta": {"OBJECT_NAME": "STARLINK-35538", "OBJECT_ID": "2025-262V", "EPOCH": "2025-12-08T06:00:02.999808", "MEAN_MOTION": 15.50556031, "ECCENTRICITY": 0.00016771, "INCLINATION": 43.0005, "RA_OF_ASC_NODE": 97.2946, "ARG_OF_PERICENTER": 265.356, "MEAN_ANOMALY": 228.0509, "EPHEMERIS_TYPE": 0, "CLASSIFICATION_TYPE": "U", "NORAD_CAT_ID": 66475, "ELEMENT_SET_NO": 999, "REV_AT_EPOCH": 491, "BSTAR": 7.3991482e-05, "MEAN_MOTION_DOT": 3.998e-05, "MEAN_MOTION_DDOT": 0}, "tle": {"line1": "1 66475U 25262V   25342.25003472  .00003998  00000+0  73991-4 0  9995", "line2": "2 66475  43.0005  97.2946 0001677 265.3560 228.0509 15.50556031  4918"}}, "geometry": {"type": "Point", "coordinates": [80.87880925466513, -12.32443789808625]}}, {"type": "Feature", "properties": {"norad_id": 66476, "name": "STARLINK-35372", "group": "last-30-days", "lat": -11.05148584736274, "lon": 82.33485849171834, "alt_km": 415.86676433602406, "timestamp": "2025-12-08T17:43:03.631619+00:00", "meta": {"OBJECT_NAME": "STARLINK-35372", "OBJECT_ID": "2025-262W", "EPOCH": "2025-12-08T06:00:02.999808", "MEAN_MOTION": 15.50567132, "ECCENTRICITY": 0.00016071, "INCLINATION": 43.0005, "RA_OF_ASC_NODE": 97.2896, "ARG_OF_PERICENTER": 267.6074, "MEAN_ANOMALY": 227.7096, "EPHEMERIS_TYPE": 0, "CLASSIFICATION_TYPE": "U", "NORAD_CAT_ID": 66476, "ELEMENT_SET_NO": 999, "REV_AT_EPOCH": 481, "BSTAR": -0.00018771591, "MEAN_MOTION_DOT": -0.00011333, "MEAN_MOTION_DDOT": 0}, "tle": {"line1": "1 66476U 25262W   25342.25003472 -.00011333  00000+0 -18772-3 0  9995", "line2": "2 66476  43.0005  97.2896 0001607 267.6074 227.7096 15.50567132  4811"}}, "geometry": {"type": "Point", "coordinates": [82.33485849171834, -11.05148584736274]}}, {"type": "Feature", "properties": {"norad_id": 66477, "name": "STARLINK-35354", "group": "last-30-days", "lat": -8.545285757432218, "lon": 85.14373965893229, "alt_km": 415.7825481765849, "timestamp": "2025-12-08T17:43:03.631632+00:00", "meta": {"OBJECT_NAME": "STARLINK-35354", "OBJECT_ID": "2025-262X", "EPOCH": "2025-12-08T06:00:02.999808", "MEAN_MOTION": 15.50507775, "ECCENTRICITY": 0.00011972, "INCLINATION": 43.0004, "RA_OF_ASC_NODE": 97.2792, "ARG_OF_PERICENTER": 248.3894, "MEAN_ANOMALY": 250.6651, "EPHEMERIS_TYPE": 0, "CLASSIFICATION_TYPE": "U", "NORAD_CAT_ID": 66477, "ELEMENT_SET_NO": 999, "REV_AT_EPOCH": 491, "BSTAR": 0.0020732245, "MEAN_MOTION_DOT": 0.00122899, "MEAN_MOTION_DDOT": 0}, "tle": {"line1": "1 66477U 25262X   25342.25003472  .00122899  00000+0  20732-2 0  9992", "line2": "2 66477  43.0004  97.2792 0001197 248.3894 250.6651 15.50507775  4916"}}, "geometry": {"type": "Point", "coordinates": [85.14373965893229, -8.545285757432218]}}, {"type": "Feature", "properties": {"norad_id": 66478, "name": "STARLINK-35283", "group": "last-30-days", "lat": -7.190912677325335, "lon": 86.63576139296627, "alt_km": 415.6852449120861, "timestamp": "2025-12-08T17:43:03.631643+00:00", "meta": {"OBJECT_NAME": "STARLINK-35283", "OBJECT_ID": "2025-262Y", "EPOCH": "2025-12-08T06:00:02.999808", "MEAN_MOTION": 15.50571245, "ECCENTRICITY": 0.00014999, "INCLINATION": 43.0005, "RA_OF_ASC_NODE": 97.2733, "ARG_OF_PERICENTER": 262.5175, "MEAN_ANOMALY": 238.5592, "EPHEMERIS_TYPE": 0, "CLASSIFICATION_TYPE": "U", "NORAD_CAT_ID": 66478, "ELEMENT_SET_NO": 999, "REV_AT_EPOCH": 491, "BSTAR": -0.00048010978, "MEAN_MOTION_DOT": -0.00028397, "MEAN_MOTION_DDOT": 0}, "tle": {"line1": "1 66478U 25262Y   25342.25003472 -.00028397  00000+0 -48011-3 0  9994", "line2": "2 66478  43.0005  97.2733 0001499 262.5175 238.5592 15.50571245  4910"}}, "geometry": {"type": "Point", "coordinates": [86.63576139296627, -7.190912677325335]}}]}